[{"OBJECT_NAME":"STARLINK-5003","OBJECT_ID":"2022-119V","EPOCH":"2026-03-09T23:12:51.000480","MEAN_MOTION":15.08828143,"ECCENTRICITY":0.00013214,"INCLINATION":53.218,"RA_OF_ASC_NODE":313.0955,"ARG_OF_PERICENTER":93.5218,"MEAN_ANOMALY":266.5925,"EPHEMERIS_TYPE":0,"CLASSIFICATION_TYPE":"U","NORAD_CAT_ID":53905,"ELEMENT_SET_NO":999,"REV_AT_EPOCH":19186,"BSTAR":4.3406634e-5,"MEAN_MOTION_DOT":4.03e-6,"MEAN_MOTION_DDOT":0},{"OBJECT_NAME":"RAAF M1","OBJECT_ID":"2018-099X","EPOCH":"2026-03-09T15:51:10.230048","MEAN_MOTION":15.07065376,"ECCENTRICITY":0.00134971,"INCLINATION":97.4534,"RA_OF_ASC_NODE":114.8325,"ARG_OF_PERICENTER":21.6261,"MEAN_ANOMALY":338.5534,"EPHEMERIS_TYPE":0,"CLASSIFICATION_TYPE":"U","NORAD_CAT_ID":43779,"ELEMENT_SET_NO":999,"REV_AT_EPOCH":39714,"BSTAR":0.00026511092,"MEAN_MOTION_DOT":3.923e-5,"MEAN_MOTION_DDOT":0}]
